NORAD_CAT_ID,OBJECT_NAME,OBJECT_TYPE,EPOCH,MEAN_MOTION,ECCENTRICITY,INCLINATION,RA_OF_ASC_NODE,ARG_OF_PERICENTER,MEAN_ANOMALY,BSTAR,MEAN_MOTION_DOT,MEAN_MOTION_DDOT,TLE_LINE0,TLE_LINE1,TLE_LINE2,SEMIMAJOR_AXIS,PERIOD,APOGEE,PERIGEE,DECAYED
52117.0,STARLINK-3738,PAYLOAD,2023-10-26 11:56:59,15.0884775,0.0001611,53.2181,3.1197,82.8069,277.3106,9.025e-05,1.149e-05,0.0,0 STARLINK-3738,1 52117U 22029AF  23299.49790800  .00001149  00000-0  90250-4 0  9998,2 52117  53.2181   3.1197 0001611  82.8069 277.3106 15.08847750 90180,6917.857,95.437,540.836,538.607,0.0
52117.0,STARLINK-3738,PAYLOAD,2023-10-27 13:23:08,15.08858346,0.0001515,53.217,358.3615,91.5075,268.6091,0.00023897,3.519e-05,0.0,0 STARLINK-3738,1 52117U 22029AF  23300.55773905  .00003519  00000-0  23897-3 0  9990,2 52117  53.2170 358.3615 0001515  91.5075 268.6091 15.08858346 90342,6917.824,95.436,540.737,538.641,0.0
52117.0,STARLINK-3738,PAYLOAD,2023-10-27 21:20:05,15.08836416,0.0002152,53.2188,356.8763,77.8252,282.2981,-2.9815e-05,-7.63e-06,0.0,0 STARLINK-3738,1 52117U 22029AF  23300.88895288 -.00000763  00000-0 -29815-4 0  9992,2 52117  53.2188 356.8763 0002152  77.8252 282.2981 15.08836416 90399,6917.891,95.438,541.245,538.268,0.0
52117.0,STARLINK-3738,PAYLOAD,2023-10-28 13:13:57,15.08835814,0.0001772,53.2167,353.9002,86.0559,274.0635,-1.696e-05,-5.58e-06,0.0,0 STARLINK-3738,1 52117U 22029AF  23301.55135491 -.00000558  00000-0 -16960-4 0  9999,2 52117  53.2167 353.9002 0001772  86.0559 274.0635 15.08835814 90496,6917.893,95.438,540.984,538.532,0.0
52117.0,STARLINK-3738,PAYLOAD,2023-10-28 21:10:52,15.08840896,0.000179,53.2181,352.4136,90.1915,269.9282,0.00011066,1.474e-05,0.0,0 STARLINK-3738,1 52117U 22029AF  23301.88255381  .00001474  00000-0  11066-3 0  9993,2 52117  53.2181 352.4136 0001790  90.1915 269.9282 15.08840896 90549,6917.878,95.437,540.981,538.504,0.0
52117.0,STARLINK-3738,PAYLOAD,2023-10-29 09:53:57,15.0886417,0.0001722,53.2174,350.0343,85.9448,274.1741,0.00082486,0.00012873,0.0,0 STARLINK-3738,1 52117U 22029AF  23302.41246691  .00012873  00000-0  82486-3 0  9996,2 52117  53.2174 350.0343 0001722  85.9448 274.1741 15.08864170 90621,6917.807,95.436,540.863,538.48,0.0
52117.0,STARLINK-3738,PAYLOAD,2023-10-30 03:23:11,15.08856615,0.0001171,53.2171,346.7631,94.5575,265.5551,0.00066957,0.00010389,0.0,0 STARLINK-3738,1 52117U 22029AF  23303.14110909  .00010389  00000-0  66957-3 0  9994,2 52117  53.2171 346.7631 0001171  94.5575 265.5551 15.08856615 90735,6917.83,95.437,540.505,538.885,0.0
52117.0,STARLINK-3738,PAYLOAD,2023-10-30 09:44:44,15.08833647,0.0001678,53.217,345.5749,88.1341,271.9843,0.0011622,0.00018254,0.0,0 STARLINK-3738,1 52117U 22029AF  23303.40607287  .00018254  00000-0  11622-2 0  9990,2 52117  53.2170 345.5749 0001678  88.1341 271.9843 15.08833647 90772,6917.9,95.438,540.926,538.604,0.0
52117.0,STARLINK-3738,PAYLOAD,2023-10-31 03:13:59,15.08835945,0.0001842,53.2176,342.3045,86.9036,273.2166,0.0011417,0.00017927,0.0,0 STARLINK-3738,1 52117U 22029AF  23304.13472073  .00017927  00000-0  11417-2 0  9992,2 52117  53.2176 342.3045 0001842  86.9036 273.2166 15.08835945 90880,6917.893,95.438,541.032,538.484,0.0
52117.0,STARLINK-3738,PAYLOAD,2023-10-31 12:46:18,15.08843424,0.0001754,53.2178,340.5192,89.5834,270.5359,0.00053377,8.218e-05,0.0,0 STARLINK-3738,1 52117U 22029AF  23304.53215974  .00008218  00000-0  53377-3 0  9996,2 52117  53.2178 340.5192 0001754  89.5834 270.5359 15.08843424 90944,6917.87,95.437,540.948,538.522,0.0
52117.0,STARLINK-3738,PAYLOAD,2023-11-01 03:04:47,15.08833116,0.0001334,53.2175,337.8453,83.6688,276.4456,0.0001442,2.007e-05,0.0,0 STARLINK-3738,1 52117U 22029AF  23305.12832350  .00002007  00000-0  14420-3 0  9991,2 52117  53.2175 337.8453 0001334  83.6688 276.4456 15.08833116 91037,6917.901,95.438,540.689,538.844,0.0
52117.0,STARLINK-3738,PAYLOAD,2023-11-01 09:26:19,15.08845416,0.0001709,53.2176,336.6548,95.4307,264.688,0.00038482,5.843e-05,0.0,0 STARLINK-3738,1 52117U 22029AF  23305.39328003  .00005843  00000-0  38482-3 0  9990,2 52117  53.2176 336.6548 0001709  95.4307 264.6880 15.08845416 91075,6917.864,95.437,540.911,538.547,0.0
52117.0,STARLINK-3738,PAYLOAD,2023-11-01 18:58:38,15.08846165,0.0001645,53.2174,334.8708,91.4505,268.6675,0.00034317,5.179e-05,0.0,0 STARLINK-3738,1 52117U 22029AF  23305.79071968  .00005179  00000-0  34317-3 0  9994,2 52117  53.2174 334.8708 0001645  91.4505 268.6675 15.08846165 91131,6917.862,95.437,540.865,538.589,0.0
52117.0,STARLINK-3738,PAYLOAD,2023-11-02 10:52:29,15.08846325,0.0002001,53.2187,331.8953,90.3366,269.7855,0.00021125,3.076e-05,0.0,0 STARLINK-3738,1 52117U 22029AF  23306.45312013  .00003076  00000-0  21125-3 0  9994,2 52117  53.2187 331.8953 0002001  90.3366 269.7855 15.08846325 91235,6917.861,95.437,541.11,538.342,0.0
52117.0,STARLINK-3738,PAYLOAD,2023-11-02 18:49:25,15.08840859,0.0002034,53.2177,330.4086,92.3644,267.7581,7.2568e-05,8.67e-06,0.0,0 STARLINK-3738,1 52117U 22029AF  23306.78432163  .00000867  00000-0  72568-4 0  9992,2 52117  53.2177 330.4086 0002034  92.3644 267.7581 15.08840859 91288,6917.878,95.438,541.15,538.336,0.0
52117.0,STARLINK-3738,PAYLOAD,2023-11-03 10:43:16,15.08847841,0.0002073,53.2175,327.4333,93.8797,266.2433,0.00017401,2.483e-05,0.0,0 STARLINK-3738,1 52117U 22029AF  23307.44671902  .00002483  00000-0  17401-3 0  9992,2 52117  53.2175 327.4333 0002073  93.8797 266.2433 15.08847841 91384,6917.856,95.437,541.155,538.287,0.0
52117.0,STARLINK-3738,PAYLOAD,2023-11-03 18:40:12,15.08841275,0.0001854,53.2174,325.9474,88.4147,271.7057,8.7279e-05,1.101e-05,0.0,0 STARLINK-3738,1 52117U 22029AF  23307.77792151  .00001101  00000-0  87279-4 0  9995,2 52117  53.2174 325.9474 0001854  88.4147 271.7057 15.08841275 91431,6917.876,95.437,541.024,538.459,0.0
52117.0,STARLINK-3738,PAYLOAD,2023-11-03 23:26:22,15.08834475,0.0001693,53.2185,325.056,89.8927,270.2259,-9.4224e-06,-4.38e-06,0.0,0 STARLINK-3738,1 52117U 22029AF  23307.97664449 -.00000438  00000-0 -94224-5 0  9998,2 52117  53.2185 325.0560 0001693  89.8927 270.2259 15.08834475 91467,6917.897,95.438,540.933,538.591,0.0
52117.0,STARLINK-3738,PAYLOAD,2023-11-04 10:34:03,15.08844343,0.0001638,53.2165,322.9731,96.1236,263.9943,0.00023853,3.511e-05,0.0,0 STARLINK-3738,1 52117U 22029AF  23308.44032147  .00003511  00000-0  23853-3 0  9996,2 52117  53.2165 322.9731 0001638  96.1236 263.9943 15.08844343 91536,6917.867,95.437,540.865,538.599,0.0
52117.0,STARLINK-3738,PAYLOAD,2023-11-04 18:30:59,15.08835501,0.0001647,53.2167,321.4854,96.2641,263.8539,6.7196e-05,7.81e-06,0.0,0 STARLINK-3738,1 52117U 22029AF  23308.77152524  .00000781  00000-0  67196-4 0  9999,2 52117  53.2167 321.4854 0001647  96.2641 263.8539 15.08835501 91580,6917.894,95.438,540.899,538.62,0.0
52117.0,STARLINK-3738,PAYLOAD,2023-11-05 00:52:32,15.08838009,0.0001842,53.2185,320.2969,89.8696,270.2507,0.00011356,1.52e-05,0.0,0 STARLINK-3738,1 52117U 22029AF  23309.03648704  .00001520  00000-0  11356-3 0  9997,2 52117  53.2185 320.2969 0001842  89.8696 270.2507 15.08838009 91627,6917.886,95.438,541.026,538.477,0.0
52117.0,STARLINK-3738,PAYLOAD,2023-11-05 07:14:04,15.08845598,0.0001802,53.2176,319.109,89.6676,270.4523,0.0002649,3.931e-05,0.0,0 STARLINK-3738,1 52117U 22029AF  23309.30144488  .00003931  00000-0  26490-3 0  9990,2 52117  53.2176 319.1090 0001802  89.6676 270.4523 15.08845598 91666,6917.863,95.437,540.975,538.482,0.0
52117.0,STARLINK-3738,PAYLOAD,2023-11-05 18:21:46,15.0884641,0.0001587,53.2172,317.0278,90.1923,269.9251,0.00024905,3.679e-05,0.0,0 STARLINK-3738,1 52117U 22029AF  23309.76512353  .00003679  00000-0  24905-3 0  9998,2 52117  53.2172 317.0278 0001587  90.1923 269.9251 15.08846410 91732,6917.861,95.437,540.824,538.628,0.0
52117.0,STARLINK-3738,PAYLOAD,2023-11-06 00:43:19,15.08853622,0.00016,53.2164,315.8381,89.2356,270.8819,0.00046783,7.168e-05,0.0,0 STARLINK-3738,1 52117U 22029AF  23310.03008213  .00007168  00000-0  46783-3 0  9990,2 52117  53.2164 315.8381 0001600  89.2356 270.8819 15.08853622 91777,6917.839,95.437,540.811,538.597,0.0
52117.0,STARLINK-3738,PAYLOAD,2023-11-06 07:04:50,15.08881988,0.0001733,53.2183,314.6497,97.5262,262.5927,0.0013525,0.00021327,0.0,0 STARLINK-3738,1 52117U 22029AF  23310.29503329  .00021327  00000-0  13525-2 0  9996,2 52117  53.2183 314.6497 0001733  97.5262 262.5927 15.08881988 91817,6917.752,95.435,540.816,538.418,0.0
52117.0,STARLINK-3738,PAYLOAD,2023-11-07 03:44:53,15.08805744,0.0001191,53.2176,310.7841,79.5353,280.5773,-0.00078779,-0.00012792,0.0,0 STARLINK-3738,1 52117U 22029AF  23311.15617404 -.00012792  00000-0 -78779-3 0  9993,2 52117  53.2176 310.7841 0001191  79.5353 280.5773 15.08805744 91947,6917.985,95.44,540.674,539.026,0.0
52117.0,STARLINK-3738,PAYLOAD,2023-11-07 06:55:39,15.08805148,0.0001325,53.2178,310.1896,91.9569,268.1575,-0.00067441,-0.00010995,0.0,0 STARLINK-3738,1 52117U 22029AF  23311.28865670 -.00010995  00000-0 -67441-3 0  9994,2 52117  53.2178 310.1896 0001325  91.9569 268.1575 15.08805148 91961,6917.987,95.44,540.769,538.935,0.0
52117.0,STARLINK-3738,PAYLOAD,2023-11-07 16:27:59,15.08817035,0.0001269,53.2178,308.4046,129.6754,230.435,-1.0911e-05,-4.61e-06,0.0,0 STARLINK-3738,1 52117U 22029AF  23311.68609971 -.00000461  00000-0 -10911-4 0  9996,2 52117  53.2178 308.4046 0001269 129.6754 230.4350 15.08817035 92029,6917.951,95.439,540.693,538.938,0.0
52117.0,STARLINK-3738,PAYLOAD,2023-11-08 03:35:40,15.08838367,0.0001484,53.2176,306.3242,43.0634,317.0474,0.00045181,6.91e-05,0.0,0 STARLINK-3738,1 52117U 22029AF  23312.14977768  .00006910  00000-0  45181-3 0  9999,2 52117  53.2176 306.3242 0001484  43.0634 317.0474 15.08838367 92094,6917.885,95.438,540.777,538.724,0.0
52117.0,STARLINK-3738,PAYLOAD,2023-11-08 09:57:12,15.0886352,0.0001305,53.2176,305.134,73.9829,286.1307,0.0013281,0.00020925,0.0,0 STARLINK-3738,1 52117U 22029AF  23312.41473344  .00020925  00000-0  13281-2 0  9997,2 52117  53.2176 305.1340 0001305  73.9829 286.1307 15.08863520 92135,6917.808,95.436,540.576,538.771,0.0
